[
  {
    "OBJECT_NAME": "STARLINK-6097",
    "OBJECT_ID": "23090E",
    "EPOCH": "2025-11-11T01:13:54.837696",
    "MEAN_MOTION": 15.0254491,
    "ECCENTRICITY": 0.0001055,
    "INCLINATION": 43.0028,
    "RA_OF_ASC_NODE": 199.5969,
    "ARG_OF_PERICENTER": 279.844,
    "MEAN_ANOMALY": 80.2284,
    "EPHEMERIS_TYPE": 0,
    "CLASSIFICATION_TYPE": "U",
    "NORAD_CAT_ID": 57105,
    "ELEMENT_SET_NO": 999,
    "REV_AT_EPOCH": 13256,
    "BSTAR": 0.00012578,
    "MEAN_MOTION_DOT": 1.496e-05,
    "MEAN_MOTION_DDOT": 0.0,
    "TLE_LINE1": "1 57105U 23090E   25315.05132914  .00001496  00000+0  12578-3 0  9998",
    "TLE_LINE2": "2 57105  43.0028 199.5969 0001055 279.8440  80.2284 15.02544910132562",
    "COMMENT": "Grouped by shell and plane from TLE"
  },
  {
    "OBJECT_NAME": "STARLINK-6118",
    "OBJECT_ID": "23090F",
    "EPOCH": "2025-11-11T01:05:55.315968",
    "MEAN_MOTION": 15.02539821,
    "ECCENTRICITY": 8.96e-05,
    "INCLINATION": 43.0027,
    "RA_OF_ASC_NODE": 199.5495,
    "ARG_OF_PERICENTER": 276.8905,
    "MEAN_ANOMALY": 83.1836,
    "EPHEMERIS_TYPE": 0,
    "CLASSIFICATION_TYPE": "U",
    "NORAD_CAT_ID": 57106,
    "ELEMENT_SET_NO": 999,
    "REV_AT_EPOCH": 13256,
    "BSTAR": 0.00012915,
    "MEAN_MOTION_DOT": 1.542e-05,
    "MEAN_MOTION_DDOT": 0.0,
    "TLE_LINE1": "1 57106U 23090F   25315.04577912  .00001542  00000+0  12915-3 0  9996",
    "TLE_LINE2": "2 57106  43.0027 199.5495 0000896 276.8905  83.1836 15.02539821132561",
    "COMMENT": "Grouped by shell and plane from TLE"
  },
  {
    "OBJECT_NAME": "STARLINK-6131",
    "OBJECT_ID": "23090G",
    "EPOCH": "2025-11-11T00:46:44.216544",
    "MEAN_MOTION": 15.02535355,
    "ECCENTRICITY": 0.0001268,
    "INCLINATION": 43.0038,
    "RA_OF_ASC_NODE": 199.4571,
    "ARG_OF_PERICENTER": 263.7743,
    "MEAN_ANOMALY": 96.2955,
    "EPHEMERIS_TYPE": 0,
    "CLASSIFICATION_TYPE": "U",
    "NORAD_CAT_ID": 57107,
    "ELEMENT_SET_NO": 999,
    "REV_AT_EPOCH": 13256,
    "BSTAR": 4.2373e-05,
    "MEAN_MOTION_DOT": 3.69e-06,
    "MEAN_MOTION_DDOT": 0.0,
    "TLE_LINE1": "1 57107U 23090G   25315.03245621  .00000369  00000+0  42373-4 0  9993",
    "TLE_LINE2": "2 57107  43.0038 199.4571 0001268 263.7743  96.2955 15.02535355132562",
    "COMMENT": "Grouped by shell and plane from TLE"
  },
  {
    "OBJECT_NAME": "STARLINK-6099",
    "OBJECT_ID": "23090H",
    "EPOCH": "2025-11-11T01:09:07.000416",
    "MEAN_MOTION": 15.02537818,
    "ECCENTRICITY": 9.24e-05,
    "INCLINATION": 43.0025,
    "RA_OF_ASC_NODE": 199.568,
    "ARG_OF_PERICENTER": 285.3486,
    "MEAN_ANOMALY": 74.7254,
    "EPHEMERIS_TYPE": 0,
    "CLASSIFICATION_TYPE": "U",
    "NORAD_CAT_ID": 57108,
    "ELEMENT_SET_NO": 999,
    "REV_AT_EPOCH": 13256,
    "BSTAR": 8.2095e-05,
    "MEAN_MOTION_DOT": 9.06e-06,
    "MEAN_MOTION_DDOT": 0.0,
    "TLE_LINE1": "1 57108U 23090H   25315.04799769  .00000906  00000+0  82095-4 0  9994",
    "TLE_LINE2": "2 57108  43.0025 199.5680 0000924 285.3486  74.7254 15.02537818132562",
    "COMMENT": "Grouped by shell and plane from TLE"
  },
  {
    "OBJECT_NAME": "STARLINK-6139",
    "OBJECT_ID": "23090J",
    "EPOCH": "2025-11-11T02:30:27.145440",
    "MEAN_MOTION": 15.02571164,
    "ECCENTRICITY": 0.0001266,
    "INCLINATION": 43.0041,
    "RA_OF_ASC_NODE": 199.1365,
    "ARG_OF_PERICENTER": 265.7883,
    "MEAN_ANOMALY": 94.2815,
    "EPHEMERIS_TYPE": 0,
    "CLASSIFICATION_TYPE": "U",
    "NORAD_CAT_ID": 57109,
    "ELEMENT_SET_NO": 999,
    "REV_AT_EPOCH": 13257,
    "BSTAR": 0.0,
    "MEAN_MOTION_DOT": -6.059e-05,
    "MEAN_MOTION_DDOT": 0.0,
    "TLE_LINE1": "1 57109U 23090J   25315.10448085 -.00006059  00000+0 -43341-3 0  9991",
    "TLE_LINE2": "2 57109  43.0041 199.1365 0001266 265.7883  94.2815 15.02571164132573",
    "COMMENT": "Grouped by shell and plane from TLE"
  },
  {
    "OBJECT_NAME": "STARLINK-6134",
    "OBJECT_ID": "23090K",
    "EPOCH": "2025-11-11T01:10:43.066848",
    "MEAN_MOTION": 15.02541596,
    "ECCENTRICITY": 9.14e-05,
    "INCLINATION": 43.0029,
    "RA_OF_ASC_NODE": 199.5823,
    "ARG_OF_PERICENTER": 281.9214,
    "MEAN_ANOMALY": 78.1526,
    "EPHEMERIS_TYPE": 0,
    "CLASSIFICATION_TYPE": "U",
    "NORAD_CAT_ID": 57110,
    "ELEMENT_SET_NO": 999,
    "REV_AT_EPOCH": 13256,
    "BSTAR": 0.00011196,
    "MEAN_MOTION_DOT": 1.309e-05,
    "MEAN_MOTION_DDOT": 0.0,
    "TLE_LINE1": "1 57110U 23090K   25315.04910957  .00001309  00000+0  11196-3 0  9992",
    "TLE_LINE2": "2 57110  43.0029 199.5823 0000914 281.9214  78.1526 15.02541596132566",
    "COMMENT": "Grouped by shell and plane from TLE"
  },
  {
    "OBJECT_NAME": "STARLINK-6140",
    "OBJECT_ID": "23090L",
    "EPOCH": "2025-11-11T00:37:08.830560",
    "MEAN_MOTION": 15.02535367,
    "ECCENTRICITY": 0.000119,
    "INCLINATION": 43.003,
    "RA_OF_ASC_NODE": 199.4063,
    "ARG_OF_PERICENTER": 265.766,
    "MEAN_ANOMALY": 94.3047,
    "EPHEMERIS_TYPE": 0,
    "CLASSIFICATION_TYPE": "U",
    "NORAD_CAT_ID": 57111,
    "ELEMENT_SET_NO": 999,
    "REV_AT_EPOCH": 13256,
    "BSTAR": 3.7401e-05,
    "MEAN_MOTION_DOT": 3.02e-06,
    "MEAN_MOTION_DDOT": 0.0,
    "TLE_LINE1": "1 57111U 23090L   25315.02579665  .00000302  00000+0  37401-4 0  9998",
    "TLE_LINE2": "2 57111  43.0030 199.4063 0001190 265.7660  94.3047 15.02535367132563",
    "COMMENT": "Grouped by shell and plane from TLE"
  },
  {
    "OBJECT_NAME": "STARLINK-6141",
    "OBJECT_ID": "23090M",
    "EPOCH": "2025-11-11T02:36:50.954112",
    "MEAN_MOTION": 15.02536102,
    "ECCENTRICITY": 0.0001222,
    "INCLINATION": 43.0046,
    "RA_OF_ASC_NODE": 199.1696,
    "ARG_OF_PERICENTER": 278.8062,
    "MEAN_ANOMALY": 81.2642,
    "EPHEMERIS_TYPE": 0,
    "CLASSIFICATION_TYPE": "U",
    "NORAD_CAT_ID": 57112,
    "ELEMENT_SET_NO": 999,
    "REV_AT_EPOCH": 13257,
    "BSTAR": 0.00014836,
    "MEAN_MOTION_DOT": 1.801e-05,
    "MEAN_MOTION_DDOT": 0.0,
    "TLE_LINE1": "1 57112U 23090M   25315.10892308  .00001801  00000+0  14836-3 0  9991",
    "TLE_LINE2": "2 57112  43.0046 199.1696 0001222 278.8062  81.2642 15.02536102132572",
    "COMMENT": "Grouped by shell and plane from TLE"
  },
  {
    "OBJECT_NAME": "STARLINK-6142",
    "OBJECT_ID": "23090N",
    "EPOCH": "2025-11-11T00:45:08.553600",
    "MEAN_MOTION": 15.02537983,
    "ECCENTRICITY": 0.0001156,
    "INCLINATION": 42.9991,
    "RA_OF_ASC_NODE": 199.4512,
    "ARG_OF_PERICENTER": 262.6897,
    "MEAN_ANOMALY": 97.3814,
    "EPHEMERIS_TYPE": 0,
    "CLASSIFICATION_TYPE": "U",
    "NORAD_CAT_ID": 57113,
    "ELEMENT_SET_NO": 999,
    "REV_AT_EPOCH": 13256,
    "BSTAR": 0.0,
    "MEAN_MOTION_DOT": -6.16e-06,
    "MEAN_MOTION_DDOT": 0.0,
    "TLE_LINE1": "1 57113U 23090N   25315.03134900 -.00000616  00000+0 -30533-4 0  9999",
    "TLE_LINE2": "2 57113  42.9991 199.4512 0001156 262.6897  97.3814 15.02537983132569",
    "COMMENT": "Grouped by shell and plane from TLE"
  },
  {
    "OBJECT_NAME": "STARLINK-6125",
    "OBJECT_ID": "23090P",
    "EPOCH": "2025-11-11T02:16:04.471680",
    "MEAN_MOTION": 15.0253584,
    "ECCENTRICITY": 0.0001369,
    "INCLINATION": 43.0046,
    "RA_OF_ASC_NODE": 199.0559,
    "ARG_OF_PERICENTER": 265.7055,
    "MEAN_ANOMALY": 94.3631,
    "EPHEMERIS_TYPE": 0,
    "CLASSIFICATION_TYPE": "U",
    "NORAD_CAT_ID": 57114,
    "ELEMENT_SET_NO": 999,
    "REV_AT_EPOCH": 13257,
    "BSTAR": 2.0679e-05,
    "MEAN_MOTION_DOT": 7.6e-07,
    "MEAN_MOTION_DDOT": 0.0,
    "TLE_LINE1": "1 57114U 23090P   25315.09449620  .00000076  00000+0  20679-4 0  9992",
    "TLE_LINE2": "2 57114  43.0046 199.0559 0001369 265.7055  94.3631 15.02535840132571",
    "COMMENT": "Grouped by shell and plane from TLE"
  },
  {
    "OBJECT_NAME": "STARLINK-6085",
    "OBJECT_ID": "23090Q",
    "EPOCH": "2025-11-11T02:28:25.742208",
    "MEAN_MOTION": 15.0795291,
    "ECCENTRICITY": 0.00103,
    "INCLINATION": 42.9996,
    "RA_OF_ASC_NODE": 195.7374,
    "ARG_OF_PERICENTER": 171.0738,
    "MEAN_ANOMALY": 189.0291,
    "EPHEMERIS_TYPE": 0,
    "CLASSIFICATION_TYPE": "U",
    "NORAD_CAT_ID": 57115,
    "ELEMENT_SET_NO": 999,
    "REV_AT_EPOCH": 13261,
    "BSTAR": 0.0017662,
    "MEAN_MOTION_DOT": 0.00027524,
    "MEAN_MOTION_DDOT": 0.0,
    "TLE_LINE1": "1 57115U 23090Q   25315.10307572  .00027524  00000+0  17662-2 0  9997",
    "TLE_LINE2": "2 57115  42.9996 195.7374 0010300 171.0738 189.0291 15.07952910132619",
    "COMMENT": "Grouped by shell and plane from TLE"
  },
  {
    "OBJECT_NAME": "STARLINK-6129",
    "OBJECT_ID": "23090R",
    "EPOCH": "2025-11-11T04:01:23.374560",
    "MEAN_MOTION": 15.02537845,
    "ECCENTRICITY": 9.45e-05,
    "INCLINATION": 43.003,
    "RA_OF_ASC_NODE": 198.749,
    "ARG_OF_PERICENTER": 277.02,
    "MEAN_ANOMALY": 83.0535,
    "EPHEMERIS_TYPE": 0,
    "CLASSIFICATION_TYPE": "U",
    "NORAD_CAT_ID": 57116,
    "ELEMENT_SET_NO": 999,
    "REV_AT_EPOCH": 13258,
    "BSTAR": 8.969800000000001e-05,
    "MEAN_MOTION_DOT": 1.008e-05,
    "MEAN_MOTION_DDOT": 0.0,
    "TLE_LINE1": "1 57116U 23090R   25315.16763165  .00001008  00000+0  89698-4 0  9997",
    "TLE_LINE2": "2 57116  43.0030 198.7490 0000945 277.0200  83.0535 15.02537845132589",
    "COMMENT": "Grouped by shell and plane from TLE"
  },
  {
    "OBJECT_NAME": "STARLINK-6148",
    "OBJECT_ID": "23090S",
    "EPOCH": "2025-11-11T00:27:33.497280",
    "MEAN_MOTION": 15.02538835,
    "ECCENTRICITY": 9.65e-05,
    "INCLINATION": 43.0007,
    "RA_OF_ASC_NODE": 199.3568,
    "ARG_OF_PERICENTER": 272.657,
    "MEAN_ANOMALY": 87.4161,
    "EPHEMERIS_TYPE": 0,
    "CLASSIFICATION_TYPE": "U",
    "NORAD_CAT_ID": 57117,
    "ELEMENT_SET_NO": 999,
    "REV_AT_EPOCH": 13255,
    "BSTAR": 4.9013000000000007e-05,
    "MEAN_MOTION_DOT": 4.59e-06,
    "MEAN_MOTION_DDOT": 0.0,
    "TLE_LINE1": "1 57117U 23090S   25315.01913770  .00000459  00000+0  49013-4 0  9997",
    "TLE_LINE2": "2 57117  43.0007 199.3568 0000965 272.6570  87.4161 15.02538835132550",
    "COMMENT": "Grouped by shell and plane from TLE"
  }
]